QIANFAN-86              
1 63172U 25046P   26065.84045957  .00000191  00000+0  27683-3 0  9996
2 63172  88.9759 311.0992 0009280 247.9427 112.0739 13.51001982 58901
QIANFAN-87              
1 63173U 25046Q   26065.81173131  .00000179  00000+0  25904-3 0  9990
2 63173  88.9756 311.2105 0009981 242.3479 117.6660 13.51010284 58832
QIANFAN-88              
1 63174U 25046R   26065.82806491  .00000180  00000+0  26056-3 0  9995
2 63174  88.9758 311.1656 0010334 252.0614 107.9411 13.50998651 58869
QIANFAN-89              
1 63175U 25046S   26065.79118239  .00000173  00000+0  24901-3 0  9997
2 63175  88.9759 311.3584 0014856 241.5460 118.4195 13.51009111 58757
QIANFAN-90              
1 63176U 25046T   26065.82001767  .00000202  00000+0  29455-3 0  9991
2 63176  88.9759 311.3280 0011812 239.3518 120.6469 13.51009118 58777
QIANFAN-91              
1 66033U 25233A   26065.85255975  .00000035  00000+0  36283-4 0  9991
2 66033  88.9932  53.5355 0001969  92.1604 267.9772 13.51004591 19360
QIANFAN-92              
1 66034U 25233B   26065.78666213  .00000010  00000+0 -36587-5 0  9997
2 66034  88.9916  53.5307 0001961  85.9806 274.1569 13.51005888 19359
QIANFAN-93              
1 66035U 25233C   26065.86895903  .00000032  00000+0  31246-4 0  9996
2 66035  88.9943  53.5465 0001939  90.7141 269.4232 13.51004966 19367
QIANFAN-94              
1 66036U 25233D   26065.85646864  .00000019  00000+0  11505-4 0  9997
2 66036  88.9940  53.4545 0002069  87.7117 272.4271 13.50991908 19410
QIANFAN-95              
1 66037U 25233E   26065.86470237  .00000018  00000+0  86443-5 0  9991
2 66037  88.9937  52.9999 0002082  93.1181 267.0208 13.51015268 19665
QIANFAN-96              
1 66038U 25233F   26065.88957748  .00000033  00000+0  32553-4 0  9990
2 66038  88.9934  53.5434 0001978  94.2881 265.8496 13.51004754 19366
QIANFAN-97              
1 66039U 25233G   26065.79904259  .00000032  00000+0  30179-4 0  9991
2 66039  88.9937  53.5333 0001957  92.1687 267.9688 13.51004141 19362
QIANFAN-98              
1 66040U 25233H   26065.80721896  .00000039  00000+0  42400-4 0  9996
2 66040  88.9927  53.2745 0002460  84.4654 275.6777 13.51004624 19502
QIANFAN-99              
1 66041U 25233J   26065.81138065  .00000036  00000+0  37861-4 0  9990
2 66041  88.9938  53.5354 0002354  88.1440 271.9981 13.51004905 19362
QIANFAN-100             
1 66042U 25233K   26065.80312240  .00000038  00000+0  40844-4 0  9996
2 66042  88.9949  53.4518 0001939  91.1747 268.9626 13.51005702 19412
QIANFAN-101             
1 66043U 25233L   26065.90027247  .00000756  00000+0  30585-3 0  9995
2 66043  88.9939  52.3061 0016982 115.2288 245.0669 14.26736384 20049
QIANFAN-102             
1 66044U 25233M   26065.89764050  .00000035  00000+0  35773-4 0  9999
2 66044  88.9936  53.4387 0002099  88.2443 271.8948 13.50992550 19428
