[{"OBJECT_NAME":"QIANFAN-86","OBJECT_ID":"2025-046P","EPOCH":"2026-03-06T20:10:15.706848","MEAN_MOTION":13.51001982,"ECCENTRICITY":0.000928,"INCLINATION":88.9759,"RA_OF_ASC_NODE":311.0992,"ARG_OF_PERICENTER":247.9427,"MEAN_ANOMALY":112.0739,"EPHEMERIS_TYPE":0,"CLASSIFICATION_TYPE":"U","NORAD_CAT_ID":63172,"ELEMENT_SET_NO":999,"REV_AT_EPOCH":5890,"BSTAR":0.00027683,"MEAN_MOTION_DOT":1.91e-6,"MEAN_MOTION_DDOT":0},{"OBJECT_NAME":"QIANFAN-87","OBJECT_ID":"2025-046Q","EPOCH":"2026-03-06T19:28:53.585184","MEAN_MOTION":13.51010284,"ECCENTRICITY":0.0009981,"INCLINATION":88.9756,"RA_OF_ASC_NODE":311.2105,"ARG_OF_PERICENTER":242.3479,"MEAN_ANOMALY":117.666,"EPHEMERIS_TYPE":0,"CLASSIFICATION_TYPE":"U","NORAD_CAT_ID":63173,"ELEMENT_SET_NO":999,"REV_AT_EPOCH":5883,"BSTAR":0.00025904,"MEAN_MOTION_DOT":1.79e-6,"MEAN_MOTION_DDOT":0},{"OBJECT_NAME":"QIANFAN-88","OBJECT_ID":"2025-046R","EPOCH":"2026-03-06T19:52:24.808224","MEAN_MOTION":13.50998651,"ECCENTRICITY":0.0010334,"INCLINATION":88.9758,"RA_OF_ASC_NODE":311.1656,"ARG_OF_PERICENTER":252.0614,"MEAN_ANOMALY":107.9411,"EPHEMERIS_TYPE":0,"CLASSIFICATION_TYPE":"U","NORAD_CAT_ID":63174,"ELEMENT_SET_NO":999,"REV_AT_EPOCH":5886,"BSTAR":0.00026056,"MEAN_MOTION_DOT":1.8e-6,"MEAN_MOTION_DDOT":0},{"OBJECT_NAME":"QIANFAN-89","OBJECT_ID":"2025-046S","EPOCH":"2026-03-06T18:59:18.158496","MEAN_MOTION":13.51009111,"ECCENTRICITY":0.0014856,"INCLINATION":88.9759,"RA_OF_ASC_NODE":311.3584,"ARG_OF_PERICENTER":241.546,"MEAN_ANOMALY":118.4195,"EPHEMERIS_TYPE":0,"CLASSIFICATION_TYPE":"U","NORAD_CAT_ID":63175,"ELEMENT_SET_NO":999,"REV_AT_EPOCH":5875,"BSTAR":0.00024901,"MEAN_MOTION_DOT":1.73e-6,"MEAN_MOTION_DDOT":0},{"OBJECT_NAME":"QIANFAN-90","OBJECT_ID":"2025-046T","EPOCH":"2026-03-06T19:40:49.526688","MEAN_MOTION":13.51009118,"ECCENTRICITY":0.0011812,"INCLINATION":88.9759,"RA_OF_ASC_NODE":311.328,"ARG_OF_PERICENTER":239.3518,"MEAN_ANOMALY":120.6469,"EPHEMERIS_TYPE":0,"CLASSIFICATION_TYPE":"U","NORAD_CAT_ID":63176,"ELEMENT_SET_NO":999,"REV_AT_EPOCH":5877,"BSTAR":0.00029455,"MEAN_MOTION_DOT":2.02e-6,"MEAN_MOTION_DDOT":0},{"OBJECT_NAME":"QIANFAN-91","OBJECT_ID":"2025-233A","EPOCH":"2026-03-06T20:27:41.162400","MEAN_MOTION":13.51004591,"ECCENTRICITY":0.0001969,"INCLINATION":88.9932,"RA_OF_ASC_NODE":53.5355,"ARG_OF_PERICENTER":92.1604,"MEAN_ANOMALY":267.9772,"EPHEMERIS_TYPE":0,"CLASSIFICATION_TYPE":"U","NORAD_CAT_ID":66033,"ELEMENT_SET_NO":999,"REV_AT_EPOCH":1936,"BSTAR":3.6283e-5,"MEAN_MOTION_DOT":3.5e-7,"MEAN_MOTION_DDOT":0},{"OBJECT_NAME":"QIANFAN-92","OBJECT_ID":"2025-233B","EPOCH":"2026-03-06T18:52:47.608032","MEAN_MOTION":13.51005888,"ECCENTRICITY":0.0001961,"INCLINATION":88.9916,"RA_OF_ASC_NODE":53.5307,"ARG_OF_PERICENTER":85.9806,"MEAN_ANOMALY":274.1569,"EPHEMERIS_TYPE":0,"CLASSIFICATION_TYPE":"U","NORAD_CAT_ID":66034,"ELEMENT_SET_NO":999,"REV_AT_EPOCH":1935,"BSTAR":-3.6587e-6,"MEAN_MOTION_DOT":1.0e-7,"MEAN_MOTION_DDOT":0},{"OBJECT_NAME":"QIANFAN-93","OBJECT_ID":"2025-233C","EPOCH":"2026-03-06T20:51:18.060192","MEAN_MOTION":13.51004966,"ECCENTRICITY":0.0001939,"INCLINATION":88.9943,"RA_OF_ASC_NODE":53.5465,"ARG_OF_PERICENTER":90.7141,"MEAN_ANOMALY":269.4232,"EPHEMERIS_TYPE":0,"CLASSIFICATION_TYPE":"U","NORAD_CAT_ID":66035,"ELEMENT_SET_NO":999,"REV_AT_EPOCH":1936,"BSTAR":3.1246e-5,"MEAN_MOTION_DOT":3.2e-7,"MEAN_MOTION_DDOT":0},{"OBJECT_NAME":"QIANFAN-94","OBJECT_ID":"2025-233D","EPOCH":"2026-03-06T20:33:18.890496","MEAN_MOTION":13.50991908,"ECCENTRICITY":0.0002069,"INCLINATION":88.994,"RA_OF_ASC_NODE":53.4545,"ARG_OF_PERICENTER":87.7117,"MEAN_ANOMALY":272.4271,"EPHEMERIS_TYPE":0,"CLASSIFICATION_TYPE":"U","NORAD_CAT_ID":66036,"ELEMENT_SET_NO":999,"REV_AT_EPOCH":1941,"BSTAR":1.1505e-5,"MEAN_MOTION_DOT":1.9e-7,"MEAN_MOTION_DDOT":0},{"OBJECT_NAME":"QIANFAN-95","OBJECT_ID":"2025-233E","EPOCH":"2026-03-06T20:45:10.284768","MEAN_MOTION":13.51015268,"ECCENTRICITY":0.0002082,"INCLINATION":88.9937,"RA_OF_ASC_NODE":52.9999,"ARG_OF_PERICENTER":93.1181,"MEAN_ANOMALY":267.0208,"EPHEMERIS_TYPE":0,"CLASSIFICATION_TYPE":"U","NORAD_CAT_ID":66037,"ELEMENT_SET_NO":999,"REV_AT_EPOCH":1966,"BSTAR":8.6443e-6,"MEAN_MOTION_DOT":1.8e-7,"MEAN_MOTION_DDOT":0},{"OBJECT_NAME":"QIANFAN-96","OBJECT_ID":"2025-233F","EPOCH":"2026-03-06T21:20:59.494272","MEAN_MOTION":13.51004754,"ECCENTRICITY":0.0001978,"INCLINATION":88.9934,"RA_OF_ASC_NODE":53.5434,"ARG_OF_PERICENTER":94.2881,"MEAN_ANOMALY":265.8496,"EPHEMERIS_TYPE":0,"CLASSIFICATION_TYPE":"U","NORAD_CAT_ID":66038,"ELEMENT_SET_NO":999,"REV_AT_EPOCH":1936,"BSTAR":3.2553e-5,"MEAN_MOTION_DOT":3.3e-7,"MEAN_MOTION_DDOT":0},{"OBJECT_NAME":"QIANFAN-97","OBJECT_ID":"2025-233G","EPOCH":"2026-03-06T19:10:37.279776","MEAN_MOTION":13.51004141,"ECCENTRICITY":0.0001957,"INCLINATION":88.9937,"RA_OF_ASC_NODE":53.5333,"ARG_OF_PERICENTER":92.1687,"MEAN_ANOMALY":267.9688,"EPHEMERIS_TYPE":0,"CLASSIFICATION_TYPE":"U","NORAD_CAT_ID":66039,"ELEMENT_SET_NO":999,"REV_AT_EPOCH":1936,"BSTAR":3.0179e-5,"MEAN_MOTION_DOT":3.2e-7,"MEAN_MOTION_DDOT":0},{"OBJECT_NAME":"QIANFAN-98","OBJECT_ID":"2025-233H","EPOCH":"2026-03-06T19:22:23.718144","MEAN_MOTION":13.51004624,"ECCENTRICITY":0.000246,"INCLINATION":88.9927,"RA_OF_ASC_NODE":53.2745,"ARG_OF_PERICENTER":84.4654,"MEAN_ANOMALY":275.6777,"EPHEMERIS_TYPE":0,"CLASSIFICATION_TYPE":"U","NORAD_CAT_ID":66040,"ELEMENT_SET_NO":999,"REV_AT_EPOCH":1950,"BSTAR":4.24e-5,"MEAN_MOTION_DOT":3.9e-7,"MEAN_MOTION_DDOT":0},{"OBJECT_NAME":"QIANFAN-99","OBJECT_ID":"2025-233J","EPOCH":"2026-03-06T19:28:23.288160","MEAN_MOTION":13.51004905,"ECCENTRICITY":0.0002354,"INCLINATION":88.9938,"RA_OF_ASC_NODE":53.5354,"ARG_OF_PERICENTER":88.144,"MEAN_ANOMALY":271.9981,"EPHEMERIS_TYPE":0,"CLASSIFICATION_TYPE":"U","NORAD_CAT_ID":66041,"ELEMENT_SET_NO":999,"REV_AT_EPOCH":1936,"BSTAR":3.7861e-5,"MEAN_MOTION_DOT":3.6e-7,"MEAN_MOTION_DDOT":0},{"OBJECT_NAME":"QIANFAN-100","OBJECT_ID":"2025-233K","EPOCH":"2026-03-06T19:16:29.775360","MEAN_MOTION":13.51005702,"ECCENTRICITY":0.0001939,"INCLINATION":88.9949,"RA_OF_ASC_NODE":53.4518,"ARG_OF_PERICENTER":91.1747,"MEAN_ANOMALY":268.9626,"EPHEMERIS_TYPE":0,"CLASSIFICATION_TYPE":"U","NORAD_CAT_ID":66042,"ELEMENT_SET_NO":999,"REV_AT_EPOCH":1941,"BSTAR":4.0844e-5,"MEAN_MOTION_DOT":3.8e-7,"MEAN_MOTION_DDOT":0},{"OBJECT_NAME":"QIANFAN-101","OBJECT_ID":"2025-233L","EPOCH":"2026-03-06T21:36:23.541408","MEAN_MOTION":14.26736384,"ECCENTRICITY":0.0016982,"INCLINATION":88.9939,"RA_OF_ASC_NODE":52.3061,"ARG_OF_PERICENTER":115.2288,"MEAN_ANOMALY":245.0669,"EPHEMERIS_TYPE":0,"CLASSIFICATION_TYPE":"U","NORAD_CAT_ID":66043,"ELEMENT_SET_NO":999,"REV_AT_EPOCH":2004,"BSTAR":0.00030585,"MEAN_MOTION_DOT":7.56e-6,"MEAN_MOTION_DDOT":0},{"OBJECT_NAME":"QIANFAN-102","OBJECT_ID":"2025-233M","EPOCH":"2026-03-06T21:32:36.139200","MEAN_MOTION":13.5099255,"ECCENTRICITY":0.0002099,"INCLINATION":88.9936,"RA_OF_ASC_NODE":53.4387,"ARG_OF_PERICENTER":88.2443,"MEAN_ANOMALY":271.8948,"EPHEMERIS_TYPE":0,"CLASSIFICATION_TYPE":"U","NORAD_CAT_ID":66044,"ELEMENT_SET_NO":999,"REV_AT_EPOCH":1942,"BSTAR":3.5773e-5,"MEAN_MOTION_DOT":3.5e-7,"MEAN_MOTION_DDOT":0}]
